FENGYUN 1C DEB          
1 30870U 99025AXG 17345.43853101  .00009371  00000-0  62384-3 0  9994
2 30870  98.9606 332.0609 0026014 139.3695 220.9476 15.07131139574737
